{
  "type": "FeatureCollection",
  "features": [
    {
      "type": "Feature",
      "properties": {
        "norad_id": 36539,
        "name": "COSMOS 2251 DEB",
        "group": "cosmos-2251-debris",
        "lat": -70.75768699087763,
        "lon": -77.60537330159691,
        "alt_km": 694.9069320597791,
        "timestamp": "2025-12-16T21:38:57.572665+00:00",
        "meta_object_name": "COSMOS 2251 DEB",
        "meta_object_id": "1993-036BCZ",
        "meta_epoch": "2025-12-16T04:00:50.074272",
        "meta_mean_motion": 14.59325285,
        "meta_eccentricity": 0.00269961,
        "meta_inclination": 74.0244,
        "meta_ra_of_asc_node": 48.6419,
        "meta_arg_of_pericenter": 193.2627,
        "meta_mean_anomaly": 166.7832,
        "meta_ephemeris_type": 0,
        "meta_classification_type": "U",
        "meta_norad_cat_id": 36539,
        "meta_element_set_no": 999,
        "meta_rev_at_epoch": 83997,
        "meta_bstar": 0.00045664758,
        "meta_mean_motion_dot": 2.141e-05,
        "meta_mean_motion_ddot": 0,
        "tle_line1": "1 36539U 93036BCZ 25350.16724623  .00002141  00000+0  45665-3 0  9999",
        "tle_line2": "2 36539  74.0244  48.6419 0026996 193.2627 166.7832 14.59325285839976"
      },
      "geometry": {
        "type": "Point",
        "coordinates": [
          -77.60537330159691,
          -70.75768699087763
        ]
      }
    },
    {
      "type": "Feature",
      "properties": {
        "norad_id": 36540,
        "name": "COSMOS 2251 DEB",
        "group": "cosmos-2251-debris",
        "lat": -27.403343966920666,
        "lon": 1.1301216272949939,
        "alt_km": 694.5001546453886,
        "timestamp": "2025-12-16T21:38:57.572675+00:00",
        "meta_object_name": "COSMOS 2251 DEB",
        "meta_object_id": "1993-036BDA",
        "meta_epoch": "2025-12-13T18:37:01.077024",
        "meta_mean_motion": 14.58495892,
        "meta_eccentricity": 0.00149508,
        "meta_inclination": 74.0294,
        "meta_ra_of_asc_node": 178.5434,
        "meta_arg_of_pericenter": 248.6284,
        "meta_mean_anomaly": 111.3286,
        "meta_ephemeris_type": 0,
        "meta_classification_type": "U",
        "meta_norad_cat_id": 36540,
        "meta_element_set_no": 999,
        "meta_rev_at_epoch": 86025,
        "meta_bstar": 0.0012951395,
        "meta_mean_motion_dot": 6e-05,
        "meta_mean_motion_ddot": 0,
        "tle_line1": "1 36540U 93036BDA 25347.77570691  .00006000  00000+0  12951-2 0  9997",
        "tle_line2": "2 36540  74.0294 178.5434 0014950 248.6284 111.3286 14.58495892860259"
      },
      "geometry": {
        "type": "Point",
        "coordinates": [
          1.1301216272949939,
          -27.403343966920666
        ]
      }
    },
    {
      "type": "Feature",
      "properties": {
        "norad_id": 36550,
        "name": "COSMOS 2251 DEB",
        "group": "cosmos-2251-debris",
        "lat": -55.69421510856358,
        "lon": 160.42272221970256,
        "alt_km": 784.4710239436963,
        "timestamp": "2025-12-16T21:38:57.572686+00:00",
        "meta_object_name": "COSMOS 2251 DEB",
        "meta_object_id": "1993-036BDL",
        "meta_epoch": "2025-12-12T06:53:46.055040",
        "meta_mean_motion": 14.27197589,
        "meta_eccentricity": 0.00783785,
        "meta_inclination": 74.0439,
        "meta_ra_of_asc_node": 193.5589,
        "meta_arg_of_pericenter": 244.3101,
        "meta_mean_anomaly": 114.994,
        "meta_ephemeris_type": 0,
        "meta_classification_type": "U",
        "meta_norad_cat_id": 36550,
        "meta_element_set_no": 999,
        "meta_rev_at_epoch": 84589,
        "meta_bstar": 0.00090622054,
        "meta_mean_motion_dot": 2.261e-05,
        "meta_mean_motion_ddot": 0,
        "tle_line1": "1 36550U 93036BDL 25346.28733860  .00002261  00000+0  90622-3 0  9999",
        "tle_line2": "2 36550  74.0439 193.5589 0078378 244.3101 114.9940 14.27197589845891"
      },
      "geometry": {
        "type": "Point",
        "coordinates": [
          160.42272221970256,
          -55.69421510856358
        ]
      }
    },
    {
      "type": "Feature",
      "properties": {
        "norad_id": 36551,
        "name": "COSMOS 2251 DEB",
        "group": "cosmos-2251-debris",
        "lat": 43.97984193846343,
        "lon": 22.330930299582555,
        "alt_km": 555.537942939216,
        "timestamp": "2025-12-16T21:38:57.572696+00:00",
        "meta_object_name": "COSMOS 2251 DEB",
        "meta_object_id": "1993-036BDM",
        "meta_epoch": "2025-12-15T18:16:54.856128",
        "meta_mean_motion": 15.02667404,
        "meta_eccentricity": 0.00509963,
        "meta_inclination": 73.8871,
        "meta_ra_of_asc_node": 8.48,
        "meta_arg_of_pericenter": 317.1051,
        "meta_mean_anomaly": 42.6163,
        "meta_ephemeris_type": 0,
        "meta_classification_type": "U",
        "meta_norad_cat_id": 36551,
        "meta_element_set_no": 999,
        "meta_rev_at_epoch": 66977,
        "meta_bstar": 0.0007245537,
        "meta_mean_motion_dot": 9.911e-05,
        "meta_mean_motion_ddot": 0,
        "tle_line1": "1 36551U 93036BDM 25349.76174602  .00009911  00000+0  72455-3 0  9992",
        "tle_line2": "2 36551  73.8871   8.4800 0050996 317.1051  42.6163 15.02667404669775"
      },
      "geometry": {
        "type": "Point",
        "coordinates": [
          22.330930299582555,
          43.97984193846343
        ]
      }
    },
    {
      "type": "Feature",
      "properties": {
        "norad_id": 36557,
        "name": "COSMOS 2251 DEB",
        "group": "cosmos-2251-debris",
        "lat": 24.124506692507197,
        "lon": 125.43977692306886,
        "alt_km": 639.724553802529,
        "timestamp": "2025-12-16T21:38:57.572706+00:00",
        "meta_object_name": "COSMOS 2251 DEB",
        "meta_object_id": "1993-036BDT",
        "meta_epoch": "2025-12-14T02:57:01.048320",
        "meta_mean_motion": 14.78340641,
        "meta_eccentricity": 0.0021568,
        "meta_inclination": 73.9788,
        "meta_ra_of_asc_node": 123.5235,
        "meta_arg_of_pericenter": 275.624,
        "meta_mean_anomaly": 84.2475,
        "meta_ephemeris_type": 0,
        "meta_classification_type": "U",
        "meta_norad_cat_id": 36557,
        "meta_element_set_no": 999,
        "meta_rev_at_epoch": 33917,
        "meta_bstar": 0.0036752981,
        "meta_mean_motion_dot": 0.00026914,
        "meta_mean_motion_ddot": 0,
        "tle_line1": "1 36557U 93036BDT 25348.12292880  .00026914  00000+0  36753-2 0  9998",
        "tle_line2": "2 36557  73.9788 123.5235 0021568 275.6240  84.2475 14.78340641339170"
      },
      "geometry": {
        "type": "Point",
        "coordinates": [
          125.43977692306886,
          24.124506692507197
        ]
      }
    },
    {
      "type": "Feature",
      "properties": {
        "norad_id": 36558,
        "name": "COSMOS 2251 DEB",
        "group": "cosmos-2251-debris",
        "lat": -19.519161743283057,
        "lon": 140.84242575267413,
        "alt_km": 715.2276301686743,
        "timestamp": "2025-12-16T21:38:57.572716+00:00",
        "meta_object_name": "COSMOS 2251 DEB",
        "meta_object_id": "1993-036BDU",
        "meta_epoch": "2025-12-13T04:39:28.280448",
        "meta_mean_motion": 14.5536689,
        "meta_eccentricity": 0.00129076,
        "meta_inclination": 74.0417,
        "meta_ra_of_asc_node": 153.6824,
        "meta_arg_of_pericenter": 242.3004,
        "meta_mean_anomaly": 117.6851,
        "meta_ephemeris_type": 0,
        "meta_classification_type": "U",
        "meta_norad_cat_id": 36558,
        "meta_element_set_no": 999,
        "meta_rev_at_epoch": 85275,
        "meta_bstar": 0.0014840285,
        "meta_mean_motion_dot": 6.426e-05,
        "meta_mean_motion_ddot": 0,
        "tle_line1": "1 36558U 93036BDU 25347.19407732  .00006426  00000+0  14840-2 0  9998",
        "tle_line2": "2 36558  74.0417 153.6824 0012907 242.3004 117.6851 14.55366890852758"
      },
      "geometry": {
        "type": "Point",
        "coordinates": [
          140.84242575267413,
          -19.519161743283057
        ]
      }
    },
    {
      "type": "Feature",
      "properties": {
        "norad_id": 36559,
        "name": "COSMOS 2251 DEB",
        "group": "cosmos-2251-debris",
        "lat": -9.276777525684858,
        "lon": 0.03602553070836505,
        "alt_km": 774.8200901756718,
        "timestamp": "2025-12-16T21:38:57.572726+00:00",
        "meta_object_name": "COSMOS 2251 DEB",
        "meta_object_id": "1993-036BDV",
        "meta_epoch": "2025-12-16T01:02:38.774976",
        "meta_mean_motion": 13.95226172,
        "meta_eccentricity": 0.0260446,
        "meta_inclination": 74.1323,
        "meta_ra_of_asc_node": 4.1653,
        "meta_arg_of_pericenter": 36.0043,
        "meta_mean_anomaly": 325.8321,
        "meta_ephemeris_type": 0,
        "meta_classification_type": "U",
        "meta_norad_cat_id": 36559,
        "meta_element_set_no": 999,
        "meta_rev_at_epoch": 81140,
        "meta_bstar": 0.0020581095,
        "meta_mean_motion_dot": 3.672e-05,
        "meta_mean_motion_ddot": 0,
        "tle_line1": "1 36559U 93036BDV 25350.04350434  .00003672  00000+0  20581-2 0  9992",
        "tle_line2": "2 36559  74.1323   4.1653 0260446  36.0043 325.8321 13.95226172811403"
      },
      "geometry": {
        "type": "Point",
        "coordinates": [
          0.03602553070836505,
          -9.276777525684858
        ]
      }
    }
  ]
}